FLOCK 2P-5              
1 41616U 16040T   17348.43853770  .00002567  00000-0  11001-3 0  9995
2 41616  97.4428  49.9848 0010962 163.0449 197.1156 15.23634394 82089
FLOCK 2P-1              
1 41617U 16040U   17348.35900069  .00001076  00000-0  47837-4 0  9992
2 41617  97.4427  49.9430 0010995 163.7207 196.4385 15.23643236 82093
FLOCK 2P-3              
1 41618U 16040V   17348.45541650  .00004345  00000-0  18416-3 0  9993
2 41618  97.4430  49.9569 0010961 163.3697 196.7902 15.23620855 82105
BEESAT-4                
1 41619U 16040W   17348.24025004  .00001731  00000-0  79760-4 0  9997
2 41619  97.4413  48.7503 0012587 152.0008 208.1907 15.21557638 69967
3CAT-2                  
1 41732U 16051B   17348.73700715  .00001487  00000-0  61324-4 0  9993
2 41732  97.3747 263.0763 0014076   4.7177  81.0131 15.25566679 74059
FLOCK 2E'-13            
1 41761U 98067KH  17348.81348970  .00033059  00000-0  29242-3 0  9994
2 41761  51.6338 197.8919 0007123 210.2609 149.7977 15.68292549 71164
FLOCK 2E'-14            
1 41762U 98067KJ  17348.03121185  .00012718  00000-0  12593-3 0  9996
2 41762  51.6361 201.7159 0005669 199.2736 160.8046 15.66231300 71046
FLOCK 2E'-16            
1 41763U 98067KK  17348.80086639  .00034116  00000-0  28956-3 0  9992
2 41763  51.6354 196.3491 0005968 220.0361 140.0196 15.69294490 71145
FLOCK 2E'-15            
1 41764U 98067KL  17348.23791273  .00010091  00000-0  10420-3 0  9990
2 41764  51.6363 201.5927 0005095 207.9836 152.0886 15.65457725 71025
FLOCK 2E'-18            
1 41769U 98067KM  17348.79130448  .00008735  00000-0  90610-4 0  9999
2 41769  51.6361 198.5320 0003628 228.5878 131.4806 15.65557850 71118
FLOCK 2E'-17            
1 41776U 98067KN  17348.05282574  .00036917  00000-0  34084-3 0  9999
2 41776  51.6365 201.8818 0004835 229.3335 130.7242 15.67196936 70995
FLOCK 2E'-19            
1 41777U 98067KP  17348.54556262  .00015812  00000-0  12852-3 0  9992
2 41777  51.6337 192.3149 0003490 218.6743 141.4005 15.70886816 71125
FLOCK 2E'-20            
1 41782U 98067KQ  17347.95945070  .00017320  00000-0  14868-3 0  9996
2 41782  51.6354 197.4569 0003304 210.4908 149.5897 15.69480044 70879
CANX-7                  
1 41788U 16059F   17348.77598128  .00006890  00000-0  12270-2 0  9996
2 41788  98.1918  49.8355 0027409 313.8288  46.0631 14.67143201 65049
ALSAT 1N                
1 41789U 16059G   17348.84867468  .00000068  00000-0  22195-4 0  9991
2 41789  98.1453  48.9863 0027379 309.5202  50.3564 14.64109836 65048
RAVAN                   
1 41849U 16067B   17348.47316290  .00000344  00000-0  34765-4 0  9991
2 41849  97.9381  69.4552 0009606  63.2524 296.9679 14.97450307 59483
CELTEE 1                
1 41850U 16067C   17348.44648761  .00000822  00000-0  77241-4 0  9998
2 41850  97.9371  69.1614 0010208  65.0228 295.2052 14.96708278 59468
OPTICUBE 04             
1 41851U 16067D   17348.79692027 -.00000025  00000-0  31843-5 0  9996
2 41851  97.9371  69.4765 0010346  63.2547 296.9731 14.96598022 59518
AEROCUBE 8D             
1 41852U 16067E   17348.47483274 -.00000208  00000-0 -12961-4 0  9997
2 41852  97.9381  69.0201 0010872  63.1919 297.0412 14.96371256 59456
AEROCUBE 8C             
1 41853U 16067F   17348.28395323  .00000033  00000-0  82672-5 0  9995
2 41853  97.9376  68.8013 0011124  65.0103 295.2272 14.96333067 59425
PROMETHEUS 2-1          
1 41854U 16067G   17348.76746442  .00000741  00000-0  70773-4 0  9995
2 41854  97.9381  69.2666 0011487  64.5729 295.6679 14.96373371 59495
PROMETHEUS 2-3          
1 41855U 16067H   17348.76971447  .00000836  00000-0  79159-4 0  9993
2 41855  97.9383  69.2694 0011707  64.9298 295.3136 14.96368664 59493
LEMUR-2-XIAOQING        
1 41871U 16062C   17348.32165926  .00002797  00000-0  12961-3 0  9990
2 41871  51.6344 310.6283 0004009 131.2015 228.9309 15.23456371 58390
LEMUR-2-SOKOLSKY        
1 41872U 16062D   17348.36660807  .00002687  00000-0  12472-3 0  9998
2 41872  51.6923 310.4704 0005735 144.8186 215.3181 15.23558665 58393
LEMUR-2-ANUBHAVTHAKUR   
1 41873U 16062E   17348.36143497  .00000406  00000-0  31923-4 0  9990
2 41873  51.6367 312.2818 0006196 150.2341 209.8999 15.21989482 58352
LEMUR-2-WINGO           
1 41874U 16062F   17348.37108705  .00002732  00000-0  12811-3 0  9993
2 41874  51.6597 310.8780 0007518 129.6168 230.5479 15.23133360 58381
STARS-C                 
1 41895U 98067KR  17348.55846122  .00065048  00000-0  32646-3 0  9990
2 41895  51.6325 194.6182 0004669 211.8614 148.2106 15.81097480 56309
ITF-2                   
1 41932U 98067KU  17348.45659394  .00020204  00000-0  19347-3 0  9992
2 41932  51.6376 205.3370 0004884 202.5210 157.5572 15.66650525 51723
WASEDA-SAT3             
1 41933U 98067KV  17348.55950200  .00019244  00000-0  16982-3 0  9998
2 41933  51.6352 202.9684 0004845 202.8835 157.1947 15.68711903 51768
AOBA-VELOX 3            
1 41935U 98067KX  17348.04765877  .00023517  00000-0  21288-3 0  9991
2 41935  51.6369 206.3400 0004382 199.6535 160.4293 15.67942464 51777
OSNSAT                  
1 41939U 98067KZ  17348.81990538  .00177209  23035-4  49901-3 0  9991
2 41939  51.6290 186.5181 0007183 220.6334 139.4138 15.93113917 51353
FLOCK 3P-8              
1 41951U 17008D   17348.78614561  .00003859  00000-0  16416-3 0  9993
2 41951  97.4754  49.5253 0006738 280.9293  79.1185 15.23601494 46010
FLOCK 3P-51             
1 41952U 17008E   17348.35963621  .00001275  00000-0  56042-4 0  9991
2 41952  97.4755  49.1997 0006878 305.1295  54.9296 15.23741091 45965
FLOCK 3P-37             
1 41953U 17008F   17348.48231320  .00003039  00000-0  12757-3 0  9994
2 41953  97.4760  49.4859 0006227 310.7760  49.2937 15.24232666 45995
INS-1B                  
1 41954U 17008G   17348.53538753  .00001471  00000-0  66592-4 0  9996
2 41954  97.4722  48.8536 0007997 282.8015  77.2327 15.22473404 45906
FLOCK 3P-19             
1 41955U 17008H   17348.60276933  .00001463  00000-0  64070-4 0  9994
2 41955  97.4745  49.2940 0007580 281.5197  78.5189 15.23623192 45914
FLOCK 3P-24             
1 41956U 17008J   17348.46202286  .00003369  00000-0  14238-3 0  9996
2 41956  97.4746  49.1727 0007346 277.5657  82.4745 15.23914041 45978
FLOCK 3P-18             
1 41957U 17008K   17348.79307606  .00002748  00000-0  11702-3 0  9998
2 41957  97.4746  49.5003 0007431 278.7786  81.2609 15.23816598 45863
FLOCK 3P-22             
1 41958U 17008L   17348.67299675  .00000929  00000-0  41813-4 0  9998
2 41958  97.4746  49.3587 0007315 280.0018  80.0394 15.23593792 45837
FLOCK 3P-21             
1 41959U 17008M   17348.72877956  .00000986  00000-0  44190-4 0  9993
2 41959  97.4752  49.4567 0007188 281.7599  78.2831 15.23583958 45854
FLOCK 3P-28             
1 41960U 17008N   17348.46440085  .00004054  00000-0  17233-3 0  9992
2 41960  97.4756  49.1902 0007030 280.9774  79.0671 15.23597265 45893
FLOCK 3P-26             
1 41961U 17008P   17348.20802640  .00002568  00000-0  11016-3 0  9995
2 41961  97.4752  48.9165 0007213 281.0206  79.0219 15.23628712 45770
FLOCK 3P-17             
1 41962U 17008Q   17348.45360342  .00002585  00000-0  11090-3 0  9992
2 41962  97.4752  49.2026 0007042 283.7655  76.2798 15.23621982 45760
FLOCK 3P-27             
1 41963U 17008R   17348.41467918  .00003291  00000-0  14022-3 0  9999
2 41963  97.4752  49.1023 0007345 280.8541  79.1869 15.23655149 45803
FLOCK 3P-25             
1 41964U 17008S   17348.46781072  .00004562  00000-0  19358-3 0  9994
2 41964  97.4753  49.1777 0007018 281.1854  78.8594 15.23587507 45790
FLOCK 3P-4              
1 41965U 17008T   17348.59243314  .00003963  00000-0  16846-3 0  9994
2 41965  97.4755  49.3275 0006914 282.2699  77.7764 15.23612534 45911
FLOCK 3P-2              
1 41966U 17008U   17348.13361538  .00003645  00000-0  15529-3 0  9998
2 41966  97.4753  48.8750 0006876 282.3420  77.7047 15.23593514 45765
FLOCK 3P-1              
1 41967U 17008V   17348.61841371  .00002290  00000-0  99000-4 0  9992
2 41967  97.4757  49.3058 0006978 282.3584  77.6872 15.23476419 45838
FLOCK 3P-3              
1 41968U 17063B   17348.72784262  .00001296  00000-0  57180-4 0  9999
2 41968  97.4749  49.4503 0006930 280.2557  79.7898 15.23580207 45844
FLOCK 3P-6              
1 41969U 17008X   17348.72212376  .00003431  00000-0  14636-3 0  9992
2 41969  97.4756  49.4682 0006699 279.4653  80.5827 15.23592086 45840
FLOCK 3P-7              
1 41970U 17008Y   17348.11155236  .00001849  00000-0  80015-4 0  9994
2 41970  97.4753  48.9072 0006865 286.1516  73.8965 15.23690321 45753
FLOCK 3P-5              
1 41971U 17008Z   17348.25999998  .00004128  00000-0  17544-3 0  9990
2 41971  97.4760  49.0213 0006753 285.2183  74.8307 15.23593301 45714
FLOCK 3P-12             
1 41972U 17008AA  17348.45558940  .00004420  00000-0  18755-3 0  9991
2 41972  97.4758  49.2170 0006589 284.8320  75.2186 15.23607268 45898
FLOCK 3P-9              
1 41973U 17008AB  17348.45894710  .00004470  00000-0  18966-3 0  9999
2 41973  97.4759  49.2177 0006716 281.9582  78.0902 15.23602628 45899
FLOCK 3P-10             
1 41974U 17008AC  17348.38070173  .00002890  00000-0  12353-3 0  9999
2 41974  97.4760  49.1731 0006605 284.5298  75.5206 15.23649991 45777
FLOCK 3P-11             
1 41975U 17008AD  17348.46015091  .00004262  00000-0  18098-3 0  9994
2 41975  97.4760  49.2159 0006832 282.6051  77.4422 15.23603450 45783
FLOCK 3P-60             
1 41976U 17008AE  17348.23719246  .00001614  00000-0  70175-4 0  9996
2 41976  97.4757  49.0612 0006562 286.8081  73.2436 15.23715270 45111
FLOCK 3P-58             
1 41977U 17008AF  17348.71885373  .00003737  00000-0  15902-3 0  9999
2 41977  97.4759  49.4806 0006516 283.0109  77.0400 15.23611505 46011
FLOCK 3P-57             
1 41978U 17008AG  17348.71047044  .00001310  00000-0  57657-4 0  9994
2 41978  97.4753  49.4923 0006656 281.5668  78.4821 15.23637204 45851
